EUTELSAT QUANTUM        
1 49056U 21069B   25278.50493990  .00000127  00000+0  00000+0 0  9993
2 49056   0.0219 287.2823 0002535 293.6216  23.0208  1.00270920 15376
EUTELSAT KONNECT VHTS   
1 53765U 22110A   25278.35331931  .00000018  00000+0  00000+0 0  9991
2 53765   0.0540 102.2697 0002687  74.0728 327.8329  1.00268429  4274
EUTELSAT HOTBIRD 13F    
1 54048U 22134A   25278.26572660  .00000088  00000+0  00000+0 0  9995
2 54048   0.0591 283.4216 0001926  78.3056 121.1471  1.00271582 10825
EUTELSAT HOTBIRD 13G    
1 54225U 22146A   25278.26572660  .00000089  00000+0  00000+0 0  9996
2 54225   0.0507 235.1473 0002073 301.1462 306.5826  1.00270709  4916
EUTELSAT 10B            
1 54259U 22157A   25278.26572660  .00000070  00000+0  00000+0 0  9995
2 54259   0.0558  99.4762 0001898  26.3031 354.1129  1.00269485 10464
EUTELSAT 36D            
1 59346U 24059A   25278.21716536  .00000157  00000+0  00000+0 0  9993
2 59346   0.0200 205.5663 0000115 317.6994 324.9197  1.00270609  5593
