<?xml version="1.0" encoding="UTF-8"?>
<ndm xmlns:xsi="http://www.w3.org/2001/XMLSchema-instance" xsi:noNamespaceSchemaLocation="https://sanaregistry.org/r/ndmxml_unqualified/ndmxml-2.0.0-master-2.0.xsd">
<omm id="CCSDS_OMM_VERS" version="2.0">
<header><CREATION_DATE/><ORIGINATOR/></header><body><segment><metadata><OBJECT_NAME>EUTELSAT QUANTUM</OBJECT_NAME><OBJECT_ID>2021-069B</OBJECT_ID><CENTER_NAME>EARTH</CENTER_NAME><REF_FRAME>TEME</REF_FRAME><TIME_SYSTEM>UTC</TIME_SYSTEM><MEAN_ELEMENT_THEORY>SGP4</MEAN_ELEMENT_THEORY></metadata><data><meanElements><EPOCH>2025-10-05T12:07:06.807360</EPOCH><MEAN_MOTION>1.00270920</MEAN_MOTION><ECCENTRICITY>.0002535</ECCENTRICITY><INCLINATION>0.0219</INCLINATION><RA_OF_ASC_NODE>287.2823</RA_OF_ASC_NODE><ARG_OF_PERICENTER>293.6216</ARG_OF_PERICENTER><MEAN_ANOMALY>23.0208</MEAN_ANOMALY></meanElements><tleParameters><EPHEMERIS_TYPE>0</EPHEMERIS_TYPE><CLASSIFICATION_TYPE>U</CLASSIFICATION_TYPE><NORAD_CAT_ID>49056</NORAD_CAT_ID><ELEMENT_SET_NO>999</ELEMENT_SET_NO><REV_AT_EPOCH>1537</REV_AT_EPOCH><BSTAR>0</BSTAR><MEAN_MOTION_DOT>.127E-5</MEAN_MOTION_DOT><MEAN_MOTION_DDOT>0</MEAN_MOTION_DDOT></tleParameters></data></segment></body></omm>
<omm id="CCSDS_OMM_VERS" version="2.0">
<header><CREATION_DATE/><ORIGINATOR/></header><body><segment><metadata><OBJECT_NAME>EUTELSAT KONNECT VHTS</OBJECT_NAME><OBJECT_ID>2022-110A</OBJECT_ID><CENTER_NAME>EARTH</CENTER_NAME><REF_FRAME>TEME</REF_FRAME><TIME_SYSTEM>UTC</TIME_SYSTEM><MEAN_ELEMENT_THEORY>SGP4</MEAN_ELEMENT_THEORY></metadata><data><meanElements><EPOCH>2025-10-05T08:28:46.788384</EPOCH><MEAN_MOTION>1.00268429</MEAN_MOTION><ECCENTRICITY>.0002687</ECCENTRICITY><INCLINATION>0.0540</INCLINATION><RA_OF_ASC_NODE>102.2697</RA_OF_ASC_NODE><ARG_OF_PERICENTER>74.0728</ARG_OF_PERICENTER><MEAN_ANOMALY>327.8329</MEAN_ANOMALY></meanElements><tleParameters><EPHEMERIS_TYPE>0</EPHEMERIS_TYPE><CLASSIFICATION_TYPE>U</CLASSIFICATION_TYPE><NORAD_CAT_ID>53765</NORAD_CAT_ID><ELEMENT_SET_NO>999</ELEMENT_SET_NO><REV_AT_EPOCH>427</REV_AT_EPOCH><BSTAR>0</BSTAR><MEAN_MOTION_DOT>.18E-6</MEAN_MOTION_DOT><MEAN_MOTION_DDOT>0</MEAN_MOTION_DDOT></tleParameters></data></segment></body></omm>
<omm id="CCSDS_OMM_VERS" version="2.0">
<header><CREATION_DATE/><ORIGINATOR/></header><body><segment><metadata><OBJECT_NAME>EUTELSAT HOTBIRD 13F</OBJECT_NAME><OBJECT_ID>2022-134A</OBJECT_ID><CENTER_NAME>EARTH</CENTER_NAME><REF_FRAME>TEME</REF_FRAME><TIME_SYSTEM>UTC</TIME_SYSTEM><MEAN_ELEMENT_THEORY>SGP4</MEAN_ELEMENT_THEORY></metadata><data><meanElements><EPOCH>2025-10-05T06:22:38.778240</EPOCH><MEAN_MOTION>1.00271582</MEAN_MOTION><ECCENTRICITY>.0001926</ECCENTRICITY><INCLINATION>0.0591</INCLINATION><RA_OF_ASC_NODE>283.4216</RA_OF_ASC_NODE><ARG_OF_PERICENTER>78.3056</ARG_OF_PERICENTER><MEAN_ANOMALY>121.1471</MEAN_ANOMALY></meanElements><tleParameters><EPHEMERIS_TYPE>0</EPHEMERIS_TYPE><CLASSIFICATION_TYPE>U</CLASSIFICATION_TYPE><NORAD_CAT_ID>54048</NORAD_CAT_ID><ELEMENT_SET_NO>999</ELEMENT_SET_NO><REV_AT_EPOCH>1082</REV_AT_EPOCH><BSTAR>0</BSTAR><MEAN_MOTION_DOT>.88E-6</MEAN_MOTION_DOT><MEAN_MOTION_DDOT>0</MEAN_MOTION_DDOT></tleParameters></data></segment></body></omm>
<omm id="CCSDS_OMM_VERS" version="2.0">
<header><CREATION_DATE/><ORIGINATOR/></header><body><segment><metadata><OBJECT_NAME>EUTELSAT HOTBIRD 13G</OBJECT_NAME><OBJECT_ID>2022-146A</OBJECT_ID><CENTER_NAME>EARTH</CENTER_NAME><REF_FRAME>TEME</REF_FRAME><TIME_SYSTEM>UTC</TIME_SYSTEM><MEAN_ELEMENT_THEORY>SGP4</MEAN_ELEMENT_THEORY></metadata><data><meanElements><EPOCH>2025-10-05T06:22:38.778240</EPOCH><MEAN_MOTION>1.00270709</MEAN_MOTION><ECCENTRICITY>.0002073</ECCENTRICITY><INCLINATION>0.0507</INCLINATION><RA_OF_ASC_NODE>235.1473</RA_OF_ASC_NODE><ARG_OF_PERICENTER>301.1462</ARG_OF_PERICENTER><MEAN_ANOMALY>306.5826</MEAN_ANOMALY></meanElements><tleParameters><EPHEMERIS_TYPE>0</EPHEMERIS_TYPE><CLASSIFICATION_TYPE>U</CLASSIFICATION_TYPE><NORAD_CAT_ID>54225</NORAD_CAT_ID><ELEMENT_SET_NO>999</ELEMENT_SET_NO><REV_AT_EPOCH>491</REV_AT_EPOCH><BSTAR>0</BSTAR><MEAN_MOTION_DOT>.89E-6</MEAN_MOTION_DOT><MEAN_MOTION_DDOT>0</MEAN_MOTION_DDOT></tleParameters></data></segment></body></omm>
<omm id="CCSDS_OMM_VERS" version="2.0">
<header><CREATION_DATE/><ORIGINATOR/></header><body><segment><metadata><OBJECT_NAME>EUTELSAT 10B</OBJECT_NAME><OBJECT_ID>2022-157A</OBJECT_ID><CENTER_NAME>EARTH</CENTER_NAME><REF_FRAME>TEME</REF_FRAME><TIME_SYSTEM>UTC</TIME_SYSTEM><MEAN_ELEMENT_THEORY>SGP4</MEAN_ELEMENT_THEORY></metadata><data><meanElements><EPOCH>2025-10-05T06:22:38.778240</EPOCH><MEAN_MOTION>1.00269485</MEAN_MOTION><ECCENTRICITY>.0001898</ECCENTRICITY><INCLINATION>0.0558</INCLINATION><RA_OF_ASC_NODE>99.4762</RA_OF_ASC_NODE><ARG_OF_PERICENTER>26.3031</ARG_OF_PERICENTER><MEAN_ANOMALY>354.1129</MEAN_ANOMALY></meanElements><tleParameters><EPHEMERIS_TYPE>0</EPHEMERIS_TYPE><CLASSIFICATION_TYPE>U</CLASSIFICATION_TYPE><NORAD_CAT_ID>54259</NORAD_CAT_ID><ELEMENT_SET_NO>999</ELEMENT_SET_NO><REV_AT_EPOCH>1046</REV_AT_EPOCH><BSTAR>0</BSTAR><MEAN_MOTION_DOT>.7E-6</MEAN_MOTION_DOT><MEAN_MOTION_DDOT>0</MEAN_MOTION_DDOT></tleParameters></data></segment></body></omm>
<omm id="CCSDS_OMM_VERS" version="2.0">
<header><CREATION_DATE/><ORIGINATOR/></header><body><segment><metadata><OBJECT_NAME>EUTELSAT 36D</OBJECT_NAME><OBJECT_ID>2024-059A</OBJECT_ID><CENTER_NAME>EARTH</CENTER_NAME><REF_FRAME>TEME</REF_FRAME><TIME_SYSTEM>UTC</TIME_SYSTEM><MEAN_ELEMENT_THEORY>SGP4</MEAN_ELEMENT_THEORY></metadata><data><meanElements><EPOCH>2025-10-05T05:12:43.087104</EPOCH><MEAN_MOTION>1.00270609</MEAN_MOTION><ECCENTRICITY>.0000115</ECCENTRICITY><INCLINATION>0.0200</INCLINATION><RA_OF_ASC_NODE>205.5663</RA_OF_ASC_NODE><ARG_OF_PERICENTER>317.6994</ARG_OF_PERICENTER><MEAN_ANOMALY>324.9197</MEAN_ANOMALY></meanElements><tleParameters><EPHEMERIS_TYPE>0</EPHEMERIS_TYPE><CLASSIFICATION_TYPE>U</CLASSIFICATION_TYPE><NORAD_CAT_ID>59346</NORAD_CAT_ID><ELEMENT_SET_NO>999</ELEMENT_SET_NO><REV_AT_EPOCH>559</REV_AT_EPOCH><BSTAR>0</BSTAR><MEAN_MOTION_DOT>.157E-5</MEAN_MOTION_DOT><MEAN_MOTION_DDOT>0</MEAN_MOTION_DDOT></tleParameters></data></segment></body></omm>
</ndm>
